{"type":"FeatureCollection", "features": [
{"type":"Feature","geometry":{"type":"Polygon","coordinates":[[[95.23,26.68],[95.3,26.65],[95.43,26.7],[95.54,26.84],[95.72,26.88],[95.8,27.02],[95.95,27.05],[96.02,27.18],[96.31,27.29],[96.52,27.29],[96.61,27.37],[96.8,27.35],[96.89,27.23],[97.06,27.1],[97.16,27.14],[96.96,27.4],[96.89,27.61],[97.02,27.74],[97.25,27.9],[97.37,27.91],[97.39,28.03],[97.28,28.27],[97.09,28.36],[96.99,28.31],[96.66,28.46],[96.37,28.39],[96.26,28.41],[96.58,28.72],[96.6,28.8],[96.52,28.97],[96.35,29.03],[96.25,28.94],[96.15,29.05],[96.24,29.23],[96.08,29.46],[95.88,29.39],[95.59,29.22],[95.55,29.13],[95.41,29.03],[95.25,29.11],[95,29.14],[94.8,29.21],[94.64,29.35],[94.56,29.23],[94.43,29.23],[94.22,29.08],[94.16,28.95],[94,28.84],[93.96,28.7],[93.62,28.66],[93.49,28.68],[93.34,28.64],[93.2,28.32],[93.03,28.3],[92.9,28.2],[92.69,28.13],[92.74,27.99],[92.56,27.82],[92.31,27.78],[92.27,27.86],[92.06,27.76],[91.88,27.72],[91.83,27.81],[91.67,27.86],[91.56,27.58],[91.66,27.48],[91.94,27.46],[92.02,27.48],[92.07,27.28],[92.03,27.08],[92.1,27.01],[92.11,26.89],[92.45,26.96],[92.58,26.96],[92.67,27.03],[92.89,27],[93.02,26.91],[93.32,26.96],[93.49,26.94],[93.66,26.97],[93.84,27.07],[93.81,27.15],[94.19,27.49],[94.36,27.57],[94.5,27.58],[94.85,27.73],[95.31,27.87],[95.51,27.88],[95.61,27.95],[95.97,27.96],[95.78,27.75],[95.79,27.6],[95.97,27.43],[95.96,27.31],[95.46,27.2],[95.45,27.13],[95.19,27.03],[95.23,26.92],[95.18,26.86],[95.23,26.68]]]},"properties":{"STNAME":"ARUNACHAL PRADESH"}},
{"type":"Feature","geometry":{"type":"Polygon","coordinates":[[[95.19,27.03],[95.45,27.13],[95.46,27.2],[95.96,27.31],[95.97,27.43],[95.79,27.6],[95.78,27.75],[95.97,27.96],[95.61,27.95],[95.51,27.88],[95.31,27.87],[94.85,27.73],[94.5,27.58],[94.36,27.57],[94.19,27.49],[93.81,27.15],[93.84,27.07],[93.66,26.97],[93.49,26.94],[93.32,26.96],[93.02,26.91],[92.89,27],[92.67,27.03],[92.58,26.96],[92.45,26.96],[92.11,26.89],[92.06,26.85],[91.89,26.92],[91.72,26.81],[91.34,26.78],[91.1,26.82],[90.99,26.79],[90.69,26.77],[90.55,26.82],[90.42,26.9],[90.19,26.77],[89.85,26.7],[89.87,26.45],[89.78,26.35],[89.72,26.17],[89.88,25.92],[89.83,25.74],[89.88,25.62],[89.85,25.47],[89.9,25.56],[90.02,25.61],[89.9,25.73],[90.01,25.88],[90.12,25.96],[90.21,25.95],[90.48,26.01],[90.63,25.92],[90.71,25.95],[90.96,25.94],[91,25.83],[91.48,25.86],[91.57,26.03],[91.64,25.92],[91.72,25.95],[91.73,26.06],[92.12,26.04],[92.16,25.97],[92.17,25.67],[92.38,25.75],[92.51,25.62],[92.64,25.53],[92.62,25.42],[92.72,25.38],[92.79,25.28],[92.62,25.12],[92.52,25.14],[92.43,25.03],[92.49,24.87],[92.39,24.85],[92.25,24.91],[92.3,24.74],[92.21,24.5],[92.29,24.25],[92.42,24.25],[92.46,24.14],[92.62,24.33],[92.8,24.42],[93.01,24.41],[93.09,24.58],[93.1,24.79],[93.19,24.8],[93.26,25.05],[93.33,25.09],[93.38,25.24],[93.45,25.32],[93.46,25.43],[93.35,25.53],[93.4,25.61],[93.7,25.85],[93.85,25.86],[93.95,25.97],[94,26.17],[94.17,26.43],[94.4,26.53],[94.46,26.66],[94.69,26.73],[94.8,26.8],[94.87,26.92],[94.98,26.91],[95.19,27.03]]]},"properties":{"STNAME":"ASSAM"}},
{"type":"Feature","geometry":null,"properties":{"STNAME":"CHANDIGARH"}},
{"type":"Feature","geometry":{"type":"Polygon","coordinates":[[[83.33,24.1],[83.14,23.88],[82.95,23.87],[82.81,23.96],[82.7,23.92],[82.52,23.78],[82.01,23.86],[81.77,23.82],[81.66,23.92],[81.61,23.51],[81.73,23.56],[81.92,23.53],[81.99,23.41],[82.1,23.4],[82.2,23.31],[82.13,23.1],[81.99,23.09],[81.79,22.77],[81.6,22.54],[81.43,22.48],[81.33,22.53],[81.23,22.45],[81.11,22.44],[81.12,22.29],[81.02,22.13],[80.91,22.11],[80.85,21.93],[80.84,21.8],[80.74,21.74],[80.72,21.59],[80.73,21.46],[80.66,21.33],[80.64,21.25],[80.46,21.17],[80.46,20.93],[80.54,20.92],[80.55,20.8],[80.61,20.6],[80.63,20.34],[80.4,20.24],[80.39,20.17],[80.55,20.12],[80.55,19.82],[80.68,19.7],[80.71,19.62],[80.9,19.52],[80.85,19.36],[80.76,19.29],[80.48,19.34],[80.27,18.94],[80.35,18.85],[80.27,18.72],[80.35,18.6],[80.45,18.63],[80.6,18.55],[80.73,18.4],[80.74,18.22],[80.87,18.14],[80.96,18.13],[81.01,17.8],[81.09,17.8],[81.17,17.86],[81.27,17.81],[81.4,17.82],[81.48,17.98],[81.54,18.27],[81.77,18.42],[81.95,18.57],[81.96,18.69],[82.16,18.79],[82.25,18.92],[82.22,19.1],[82.17,19.15],[82.17,19.44],[82.05,19.53],[82.07,19.79],[81.85,19.92],[81.87,20.04],[81.95,20.11],[82.18,19.98],[82.27,19.98],[82.35,19.84],[82.45,19.91],[82.71,19.84],[82.72,19.99],[82.6,19.99],[82.4,20.06],[82.44,20.43],[82.33,20.57],[82.38,20.63],[82.34,20.85],[82.56,20.95],[82.63,21.04],[82.64,21.15],[82.9,21.17],[83.13,21.11],[83.2,21.15],[83.38,21.62],[83.44,21.66],[83.61,21.91],[83.54,22.04],[83.63,22.2],[83.76,22.24],[83.86,22.34],[84,22.37],[84.01,22.53],[84.02,22.59],[84.24,22.69],[84.4,22.94],[84.18,22.98],[84.13,23.08],[84.03,23.16],[84.07,23.33],[83.96,23.39],[84.03,23.6],[83.94,23.57],[83.78,23.61],[83.74,23.76],[83.56,23.89],[83.43,24.09],[83.33,24.1]]]},"properties":{"STNAME":"CHHATTISGARH"}},
{"type":"Feature","geometry":{"type":"Polygon","coordinates":[[[77.21,28.86],[77.06,28.87],[76.95,28.82],[76.97,28.7],[76.84,28.56],[77.01,28.54],[77.24,28.48],[77.35,28.51],[77.3,28.58],[77.33,28.71],[77.2,28.8],[77.21,28.86]]]},"properties":{"STNAME":"DELHI"}},
{"type":"Feature","geometry":{"type":"Polygon","coordinates":[[[74.12,15.65],[73.99,15.61],[73.94,15.74],[73.68,15.73],[73.77,15.49],[73.9,15.42],[73.88,15.36],[73.95,15.14],[73.93,15.08],[74.09,14.9],[74.25,14.96],[74.33,15.28],[74.25,15.49],[74.22,15.66],[74.12,15.65]]]},"properties":{"STNAME":"GOA"}},
{"type":"Feature","geometry":{"type":"Polygon","coordinates":[[[77.59,30.38],[77.23,30.48],[77.12,30.56],[77.16,30.69],[77.03,30.73],[77.01,30.81],[76.78,30.9],[76.84,30.75],[76.83,30.68],[76.93,30.61],[76.88,30.41],[76.79,30.42],[76.64,30.28],[76.54,30.07],[76.41,30.15],[76.23,30.06],[76.18,29.82],[75.98,29.73],[75.78,29.82],[75.63,29.76],[75.42,29.78],[75.35,29.7],[75.31,29.56],[75.18,29.63],[75.2,29.73],[75.07,29.88],[74.93,29.95],[74.69,29.97],[74.53,29.94],[74.62,29.75],[74.57,29.56],[74.61,29.36],[74.94,29.36],[74.96,29.28],[75.08,29.23],[75.34,29.28],[75.41,29.24],[75.39,29.06],[75.52,29],[75.5,28.78],[75.56,28.61],[75.62,28.6],[75.77,28.42],[75.89,28.38],[76.07,28.17],[76,28.12],[75.97,27.85],[76.17,27.9],[76.18,28.05],[76.36,28.14],[76.48,28.15],[76.59,28],[76.81,28.21],[76.97,28.14],[76.9,27.68],[77.11,27.79],[77.28,27.8],[77.55,27.96],[77.47,28.09],[77.54,28.17],[77.48,28.42],[77.35,28.51],[77.24,28.48],[77.01,28.54],[76.84,28.56],[76.97,28.7],[76.95,28.82],[77.06,28.87],[77.21,28.86],[77.23,28.92],[77.13,29.22],[77.16,29.33],[77.1,29.52],[77.12,29.75],[77.3,30.06],[77.41,30.09],[77.58,30.31],[77.59,30.38]]]},"properties":{"STNAME":"HARYANA"}},
{"type":"Feature","geometry":{"type":"Polygon","coordinates":[[[78.4,32.53],[78.39,32.76],[78.22,32.66],[78.02,32.62],[77.92,32.69],[77.93,32.77],[77.79,32.86],[77.73,32.97],[77.6,32.94],[77.34,32.82],[77.16,32.92],[77.15,32.98],[76.93,33.03],[76.77,33.25],[76.75,33.18],[76.57,33.21],[76.41,33.19],[76.25,33.02],[75.95,32.87],[75.92,32.61],[75.83,32.51],[75.9,32.45],[75.77,32.29],[75.64,32.25],[75.66,32.08],[75.91,31.95],[76.02,31.63],[76.12,31.5],[76.21,31.3],[76.43,31.33],[76.65,31.21],[76.6,31.12],[76.62,31],[76.78,30.9],[77.01,30.81],[77.03,30.73],[77.16,30.69],[77.12,30.56],[77.23,30.48],[77.59,30.38],[77.58,30.4],[77.82,30.51],[77.79,30.63],[77.71,30.74],[77.8,30.87],[77.75,30.96],[77.86,31.11],[78.37,31.29],[78.48,31.2],[78.81,31.2],[78.89,31.1],[78.99,31.17],[78.88,31.29],[78.79,31.3],[78.8,31.44],[78.73,31.54],[78.85,31.61],[78.71,31.78],[78.78,31.99],[78.59,32.15],[78.48,32.28],[78.53,32.41],[78.4,32.53]]]},"properties":{"STNAME":"HIMACHAL PRADESH"}},
{"type":"Feature","geometry":{"type":"Polygon","coordinates":[[[87.71,25.26],[87.55,25.33],[87.47,25.24],[87.33,25.22],[87.3,25.11],[87.15,25.02],[87.05,24.61],[86.79,24.62],[86.52,24.54],[86.45,24.37],[86.35,24.45],[86.28,24.59],[86.17,24.58],[86.06,24.78],[85.92,24.74],[85.74,24.82],[85.68,24.62],[85.5,24.55],[85.32,24.52],[85.17,24.42],[84.95,24.37],[84.83,24.53],[84.58,24.41],[84.5,24.29],[84.34,24.39],[84.3,24.56],[84.17,24.55],[84.03,24.63],[83.94,24.55],[83.72,24.5],[83.5,24.53],[83.4,24.5],[83.45,24.38],[83.33,24.1],[83.43,24.09],[83.56,23.89],[83.74,23.76],[83.78,23.61],[83.94,23.57],[84.03,23.6],[83.96,23.39],[84.07,23.33],[84.03,23.16],[84.13,23.08],[84.18,22.98],[84.4,22.94],[84.24,22.69],[84.02,22.59],[84.01,22.53],[84.14,22.47],[84.2,22.38],[84.43,22.35],[84.51,22.42],[84.76,22.45],[84.92,22.43],[85.06,22.49],[85.12,22.29],[85.03,22.12],[85.25,22.03],[85.37,22.16],[85.6,22.08],[85.75,22.07],[85.78,21.98],[85.91,21.97],[86.03,22.19],[85.97,22.25],[86.05,22.57],[86.12,22.49],[86.27,22.44],[86.41,22.32],[86.5,22.34],[86.73,22.22],[86.82,22.27],[86.85,22.4],[86.77,22.58],[86.42,22.79],[86.5,22.99],[86.22,22.99],[86.04,23.14],[85.89,23.16],[85.82,23.27],[85.87,23.33],[85.88,23.48],[86.04,23.5],[86.29,23.43],[86.49,23.64],[86.71,23.7],[86.8,23.69],[86.89,23.84],[86.99,23.86],[87.12,23.8],[87.3,23.9],[87.25,24.05],[87.44,23.98],[87.53,24.11],[87.76,24.31],[87.82,24.5],[87.92,24.67],[87.84,24.74],[87.96,24.97],[87.8,25.09],[87.78,25.25],[87.71,25.26]]]},"properties":{"STNAME":"JHARKHAND"}},
{"type":"Feature","geometry":{"type":"Polygon","coordinates":[[[77.55,18.29],[77.41,18.3],[77.41,18.39],[77.34,18.45],[77.24,18.41],[77.14,18.21],[76.95,18.19],[76.92,18.12],[76.92,17.92],[76.78,17.88],[76.69,17.68],[76.56,17.76],[76.42,17.6],[76.33,17.6],[76.36,17.38],[76.12,17.37],[75.93,17.32],[75.63,17.48],[75.6,17.31],[75.67,17.12],[75.67,16.98],[75.47,16.99],[75.28,16.96],[75.18,16.84],[75.09,16.95],[74.99,16.95],[74.92,16.77],[74.77,16.75],[74.69,16.62],[74.54,16.64],[74.4,16.58],[74.33,16.45],[74.35,16.28],[74.5,16.23],[74.48,16.09],[74.39,15.91],[74.37,15.79],[74.16,15.75],[74.12,15.65],[74.22,15.66],[74.25,15.49],[74.33,15.28],[74.25,14.96],[74.09,14.9],[74.14,14.78],[74.25,14.74],[74.32,14.53],[74.36,14.51],[74.47,14.19],[74.5,14.02],[74.61,13.87],[74.67,13.63],[74.7,13.35],[74.82,12.85],[74.87,12.76],[75.01,12.77],[75.05,12.67],[75.16,12.67],[75.28,12.52],[75.38,12.5],[75.38,12.39],[75.65,12.11],[75.8,12.08],[75.87,11.95],[76,11.93],[76.11,11.98],[76.19,11.87],[76.43,11.67],[76.56,11.62],[76.76,11.62],[76.83,11.66],[76.91,11.8],[77.01,11.81],[77.11,11.77],[77.29,11.81],[77.45,11.8],[77.46,11.89],[77.68,11.95],[77.77,12.12],[77.73,12.18],[77.47,12.21],[77.62,12.37],[77.59,12.51],[77.6,12.67],[77.74,12.67],[77.8,12.85],[77.92,12.88],[78.01,12.81],[78.08,12.84],[78.23,12.76],[78.25,12.86],[78.39,12.91],[78.57,13.19],[78.56,13.28],[78.4,13.32],[78.39,13.59],[78.19,13.59],[78.11,13.66],[78.11,13.86],[77.99,13.87],[77.9,13.94],[77.78,13.82],[77.47,13.71],[77.43,13.84],[77.26,13.85],[77.06,13.74],[76.98,13.82],[77.04,13.93],[76.93,14.03],[76.97,14.08],[77.14,14],[77.31,14.03],[77.4,13.91],[77.39,14.17],[77.5,14.16],[77.48,14.29],[77.36,14.28],[77.14,14.34],[77.12,14.23],[76.94,14.24],[76.95,14.41],[76.77,14.6],[76.87,14.94],[76.88,15.03],[77.11,15.03],[77.17,15.17],[77.15,15.28],[77.04,15.36],[77.03,15.63],[77.07,15.91],[77.19,15.96],[77.51,15.93],[77.49,16.12],[77.49,16.39],[77.29,16.41],[77.29,16.48],[77.42,16.52],[77.47,16.61],[77.46,16.92],[77.5,17.04],[77.38,17.14],[77.54,17.44],[77.69,17.51],[77.44,17.58],[77.51,17.81],[77.65,17.95],[77.55,18.29]]]},"properties":{"STNAME":"KARNATAKA"}},
{"type":"Feature","geometry":{"type":"Polygon","coordinates":[[[94.68,25.45],[94.55,25.5],[94.59,25.68],[94.36,25.51],[94.22,25.49],[94.02,25.59],[93.83,25.56],[93.81,25.48],[93.62,25.23],[93.5,25.24],[93.45,25.32],[93.38,25.24],[93.33,25.09],[93.26,25.05],[93.19,24.8],[93.1,24.79],[93.09,24.58],[93.01,24.41],[93.04,24.34],[92.99,24.12],[93.1,24.05],[93.33,24.05],[93.42,24.06],[93.49,23.95],[93.62,24.01],[93.75,24.01],[93.82,23.92],[94.02,23.93],[94.16,23.85],[94.24,24.04],[94.26,24.17],[94.45,24.57],[94.61,24.72],[94.74,25.04],[94.74,25.14],[94.61,25.18],[94.59,25.27],[94.68,25.45]]]},"properties":{"STNAME":"MANIPUR"}},
{"type":"Feature","geometry":{"type":"Polygon","coordinates":[[[92.43,25.03],[92.52,25.14],[92.62,25.12],[92.79,25.28],[92.72,25.38],[92.62,25.42],[92.64,25.53],[92.51,25.62],[92.38,25.75],[92.17,25.67],[92.16,25.97],[92.12,26.04],[91.73,26.06],[91.72,25.95],[91.64,25.92],[91.57,26.03],[91.48,25.86],[91,25.83],[90.96,25.94],[90.71,25.95],[90.63,25.92],[90.48,26.01],[90.21,25.95],[90.12,25.96],[90.01,25.88],[89.9,25.73],[90.02,25.61],[89.9,25.56],[89.85,25.47],[89.82,25.39],[89.91,25.31],[90.11,25.22],[90.51,25.17],[90.87,25.16],[91.08,25.2],[91.25,25.2],[91.49,25.13],[91.6,25.17],[92.08,25.18],[92.43,25.03]]]},"properties":{"STNAME":"MEGHALAYA"}},
{"type":"Feature","geometry":{"type":"Polygon","coordinates":[[[93.01,24.41],[92.8,24.42],[92.62,24.33],[92.46,24.14],[92.42,24.25],[92.29,24.25],[92.33,24.15],[92.33,23.91],[92.26,23.81],[92.27,23.73],[92.4,23.24],[92.37,22.97],[92.46,22.86],[92.53,22.67],[92.61,22.14],[92.73,22.15],[92.89,22.01],[92.98,22],[93.06,22.21],[93.2,22.26],[93.19,22.43],[93.11,22.53],[93.14,22.59],[93.09,22.7],[93.13,22.89],[93.13,23.04],[93.24,23.01],[93.33,23.05],[93.38,23.19],[93.36,23.31],[93.44,23.68],[93.33,24.05],[93.1,24.05],[92.99,24.12],[93.04,24.34],[93.01,24.41]]]},"properties":{"STNAME":"MIZORAM"}},
{"type":"Feature","geometry":{"type":"Polygon","coordinates":[[[95.19,27.03],[94.98,26.91],[94.87,26.92],[94.8,26.8],[94.69,26.73],[94.46,26.66],[94.4,26.53],[94.17,26.43],[94,26.17],[93.95,25.97],[93.85,25.86],[93.7,25.85],[93.4,25.61],[93.35,25.53],[93.46,25.43],[93.45,25.32],[93.5,25.24],[93.62,25.23],[93.81,25.48],[93.83,25.56],[94.02,25.59],[94.22,25.49],[94.36,25.51],[94.59,25.68],[94.55,25.5],[94.68,25.45],[94.81,25.49],[94.94,25.67],[95.04,25.74],[95.01,25.87],[95.19,26.07],[95.12,26.1],[95.13,26.38],[95.07,26.47],[95.23,26.68],[95.18,26.86],[95.23,26.92],[95.19,27.03]]]},"properties":{"STNAME":"NAGALAND"}},
{"type":"Feature","geometry":{"type":"Polygon","coordinates":[[[76.78,30.9],[76.62,31],[76.6,31.12],[76.65,31.21],[76.43,31.33],[76.21,31.3],[76.12,31.5],[76.02,31.63],[75.91,31.95],[75.66,32.08],[75.64,32.25],[75.77,32.29],[75.9,32.45],[75.83,32.51],[75.69,32.39],[75.48,32.33],[75.33,32.33],[75.37,32.26],[75.25,32.1],[74.98,32.04],[74.88,32.05],[74.82,31.96],[74.61,31.89],[74.55,31.75],[74.58,31.52],[74.65,31.46],[74.55,31.36],[74.51,31.13],[74.69,31.13],[74.67,31.05],[74.55,31.03],[74.32,30.85],[74.27,30.74],[73.96,30.48],[73.88,30.37],[73.97,30.2],[73.89,29.97],[74.53,29.94],[74.69,29.97],[74.93,29.95],[75.07,29.88],[75.2,29.73],[75.18,29.63],[75.31,29.56],[75.35,29.7],[75.42,29.78],[75.63,29.76],[75.78,29.82],[75.98,29.73],[76.18,29.82],[76.23,30.06],[76.41,30.15],[76.54,30.07],[76.64,30.28],[76.79,30.42],[76.88,30.41],[76.93,30.61],[76.83,30.68],[76.84,30.75],[76.78,30.9]]]},"properties":{"STNAME":"PUNJAB"}},
{"type":"Feature","geometry":{"type":"Polygon","coordinates":[[[74.53,29.94],[73.89,29.97],[73.97,30.2],[73.81,30.07],[73.4,29.95],[73.28,29.57],[72.95,29.03],[72.73,28.95],[72.4,28.78],[72.3,28.67],[72.21,28.39],[71.93,28.12],[71.9,27.96],[71.67,27.88],[71.38,27.87],[71.21,27.84],[70.91,27.71],[70.76,27.72],[70.68,27.92],[70.51,28.04],[70.37,28.01],[70.13,27.81],[70.03,27.56],[69.86,27.4],[69.59,27.18],[69.51,27.01],[69.48,26.8],[69.51,26.74],[69.89,26.58],[70.06,26.6],[70.17,26.55],[70.17,26.25],[70.08,26.08],[70.1,25.94],[70.27,25.71],[70.39,25.67],[70.61,25.72],[70.67,25.68],[70.66,25.4],[70.89,25.15],[70.94,24.94],[71.11,24.68],[71.3,24.62],[71.48,24.68],[71.71,24.66],[72.06,24.71],[72.16,24.62],[72.23,24.64],[72.35,24.56],[72.46,24.41],[72.54,24.52],[72.66,24.46],[72.72,24.37],[72.91,24.34],[73,24.47],[73.17,24.3],[73.07,24.19],[73.21,24.08],[73.36,24.08],[73.41,23.94],[73.35,23.85],[73.47,23.71],[73.66,23.62],[73.63,23.45],[73.77,23.45],[73.89,23.33],[74.03,23.33],[74.14,23.27],[74.13,23.18],[74.27,23.16],[74.32,23.06],[74.39,23.11],[74.53,23.1],[74.71,23.25],[74.51,23.32],[74.57,23.42],[74.85,23.55],[74.94,23.63],[74.9,23.85],[74.94,24.05],[74.87,24.24],[74.78,24.34],[74.86,24.42],[74.73,24.49],[74.79,24.59],[74.93,24.64],[74.97,24.76],[74.86,24.8],[74.83,24.9],[75.03,24.84],[75.2,25.03],[75.33,25.04],[75.22,24.8],[75.23,24.72],[75.46,24.68],[75.65,24.69],[75.76,24.76],[75.84,24.73],[75.91,24.46],[75.73,24.4],[75.83,24.23],[75.75,24.14],[75.84,24.06],[75.7,23.97],[75.52,24.02],[75.46,23.91],[75.58,23.79],[75.98,23.93],[76,24.02],[76.13,24.09],[76.12,24.19],[76.32,24.25],[76.5,24.2],[76.64,24.27],[76.68,24.19],[76.79,24.12],[76.9,24.13],[76.92,24.21],[76.83,24.36],[76.86,24.55],[76.98,24.46],[77.05,24.53],[77.07,24.64],[76.95,24.76],[76.95,24.87],[76.86,24.96],[76.88,25.04],[77.3,25.09],[77.39,25.12],[77.41,25.22],[77.31,25.43],[77.21,25.31],[77.08,25.34],[76.96,25.28],[76.78,25.32],[76.62,25.38],[76.52,25.53],[76.53,25.81],[76.63,25.9],[76.79,25.94],[76.9,26.09],[77.12,26.22],[77.2,26.23],[77.44,26.4],[77.52,26.41],[77.83,26.56],[78.11,26.79],[78.22,26.83],[78.27,26.92],[78.12,26.95],[77.95,26.89],[77.76,26.93],[77.72,26.87],[77.56,26.82],[77.49,26.75],[77.4,26.83],[77.66,26.97],[77.54,27.1],[77.66,27.17],[77.55,27.34],[77.44,27.39],[77.34,27.53],[77.35,27.65],[77.28,27.8],[77.11,27.79],[76.9,27.68],[76.97,28.14],[76.81,28.21],[76.59,28],[76.48,28.15],[76.36,28.14],[76.18,28.05],[76.17,27.9],[75.97,27.85],[76,28.12],[76.07,28.17],[75.89,28.38],[75.77,28.42],[75.62,28.6],[75.56,28.61],[75.5,28.78],[75.52,29],[75.39,29.06],[75.41,29.24],[75.34,29.28],[75.08,29.23],[74.96,29.28],[74.94,29.36],[74.61,29.36],[74.57,29.56],[74.62,29.75],[74.53,29.94]]]},"properties":{"STNAME":"RAJASTHAN"}},
{"type":"Feature","geometry":{"type":"Polygon","coordinates":[[[88.75,27.14],[88.8,27.25],[88.92,27.33],[88.78,27.47],[88.85,27.67],[88.88,27.89],[88.76,28.08],[88.57,28.09],[88.54,28.03],[88.39,27.98],[88.24,27.97],[88.14,27.66],[88.04,27.48],[88.07,27.34],[88.01,27.21],[88.15,27.11],[88.32,27.13],[88.43,27.08],[88.6,27.19],[88.75,27.14]]]},"properties":{"STNAME":"SIKKIM"}},
{"type":"Feature","geometry":{"type":"Polygon","coordinates":[[[92.21,24.5],[92.11,24.38],[91.92,24.34],[91.9,24.14],[91.75,24.25],[91.63,24.1],[91.54,24.07],[91.38,24.11],[91.36,23.99],[91.28,23.98],[91.17,23.75],[91.16,23.6],[91.25,23.49],[91.32,23.24],[91.48,23.21],[91.58,22.97],[91.72,22.99],[91.82,23.09],[91.76,23.31],[91.98,23.5],[91.94,23.69],[92.07,23.65],[92.27,23.73],[92.26,23.81],[92.33,23.91],[92.33,24.15],[92.29,24.25],[92.21,24.5]]]},"properties":{"STNAME":"TRIPURA"}},
{"type":"Feature","geometry":{"type":"Polygon","coordinates":[[[80.07,28.84],[80.06,28.92],[80.14,29.1],[80.26,29.19],[80.32,29.31],[80.24,29.41],[80.41,29.6],[80.37,29.72],[80.55,29.85],[81.03,30.25],[80.8,30.32],[80.61,30.47],[80.54,30.45],[80.32,30.56],[80.21,30.59],[80.25,30.72],[80.17,30.81],[80.09,30.8],[79.78,30.99],[79.6,30.94],[79.32,31.14],[79.1,31.45],[79.02,31.42],[78.88,31.29],[78.99,31.17],[78.89,31.1],[78.81,31.2],[78.48,31.2],[78.37,31.29],[77.86,31.11],[77.75,30.96],[77.8,30.87],[77.71,30.74],[77.79,30.63],[77.82,30.51],[77.58,30.4],[77.94,30.25],[77.8,30.08],[77.71,29.87],[77.83,29.67],[77.91,29.7],[78.02,29.59],[78.2,29.74],[78.34,29.8],[78.51,29.72],[78.58,29.59],[78.71,29.5],[78.92,29.43],[78.73,29.3],[78.87,29.23],[78.92,29.14],[79.04,29.16],[79.15,29.12],[79.21,29.03],[79.41,28.95],[79.42,28.87],[79.72,28.85],[79.83,28.88],[79.95,28.72],[80.07,28.84]]]},"properties":{"STNAME":"UTTARAKHAND"}},
{"type":"Feature","geometry":{"type":"Polygon","coordinates":[[[80.27,18.72],[80.12,18.68],[79.96,18.87],[79.94,19.04],[79.97,19.42],[79.94,19.47],[79.74,19.61],[79.5,19.51],[79.27,19.6],[79.2,19.49],[78.94,19.55],[78.96,19.66],[78.84,19.76],[78.55,19.82],[78.42,19.82],[78.28,19.69],[78.3,19.46],[78.17,19.36],[78.18,19.24],[78.06,19.24],[77.95,19.34],[77.87,19.26],[77.8,19.05],[77.84,18.8],[77.74,18.56],[77.6,18.55],[77.53,18.34],[77.55,18.29],[77.65,17.95],[77.51,17.81],[77.44,17.58],[77.69,17.51],[77.54,17.44],[77.38,17.14],[77.5,17.04],[77.46,16.92],[77.47,16.61],[77.42,16.52],[77.29,16.48],[77.29,16.41],[77.49,16.39],[77.49,16.12],[77.51,15.93],[77.8,15.87],[77.89,15.91],[78.1,15.84],[78.18,15.86],[78.3,16.01],[78.41,16.07],[78.55,16.04],[78.63,16.09],[78.74,16.01],[78.84,16.08],[78.83,16.14],[79.01,16.24],[79.22,16.23],[79.22,16.51],[79.26,16.57],[79.42,16.58],[79.6,16.67],[79.79,16.73],[79.96,16.64],[80.05,16.74],[80,16.87],[80.06,16.97],[80.17,17.02],[80.31,16.97],[80.32,16.88],[80.57,16.77],[80.6,16.92],[80.46,17.03],[80.58,17.15],[80.83,17.05],[80.92,17.22],[80.99,17.19],[81.17,17.23],[81.31,17.41],[81.02,17.52],[80.97,17.6],[80.86,17.6],[80.89,17.74],[81.04,17.75],[81.09,17.8],[81.01,17.8],[80.96,18.13],[80.87,18.14],[80.74,18.22],[80.73,18.4],[80.6,18.55],[80.45,18.63],[80.35,18.6],[80.27,18.72]]]},"properties":{"STNAME":"TELANGANA"}},
{"type":"Feature","geometry":{"type":"MultiPolygon","coordinates":[[[[93.84,7.24],[93.65,7.13],[93.74,6.96],[93.8,6.77],[93.88,6.79],[93.92,6.95],[93.84,7.24]]],[[[92.52,10.9],[92.38,10.74],[92.42,10.55],[92.5,10.51],[92.57,10.58],[92.6,10.7],[92.52,10.9]]],[[[92.7,12.24],[92.62,12.1],[92.59,11.74],[92.61,11.59],[92.75,11.61],[92.79,11.93],[92.7,12.24]]],[[[92.9,12.91],[92.72,12.83],[92.75,12.67],[92.71,12.58],[92.7,12.33],[92.88,12.33],[92.97,12.54],[92.97,12.74],[92.9,12.91]]],[[[93.03,13.57],[92.93,13.52],[92.85,13.41],[92.83,13.21],[92.79,13.09],[92.9,13.02],[93,13.03],[93.06,13.26],[93.03,13.57]]]]},"properties":{"STNAME":"ANDAMAN & NICOBAR"}},
{"type":"Feature","geometry":{"type":"Polygon","coordinates":[[[88.11,26.55],[88.03,26.39],[87.9,26.48],[87.77,26.41],[87.58,26.39],[87.46,26.44],[87.34,26.35],[87.16,26.4],[87.02,26.53],[86.83,26.44],[86.69,26.45],[86.54,26.54],[86.31,26.62],[86.14,26.61],[86.03,26.67],[85.86,26.57],[85.73,26.65],[85.73,26.8],[85.62,26.87],[85.33,26.74],[85.2,26.77],[85.19,26.87],[85.06,26.85],[84.96,26.96],[84.64,27.05],[84.69,27.22],[84.62,27.34],[84.28,27.39],[84.26,27.45],[84.1,27.52],[84.05,27.45],[83.87,27.44],[83.86,27.34],[83.99,27.2],[83.95,27.11],[84.05,27.04],[84.05,26.91],[84.18,26.83],[84.33,26.68],[84.28,26.6],[84.09,26.64],[84.06,26.54],[83.92,26.52],[83.91,26.45],[84.18,26.37],[84.18,26.27],[84.03,26.2],[84.21,26],[84.51,25.87],[84.62,25.79],[84.52,25.68],[84.36,25.74],[84.32,25.67],[84.17,25.72],[83.92,25.55],[83.81,25.41],[83.41,25.25],[83.37,25.2],[83.35,24.91],[83.4,24.78],[83.49,24.74],[83.54,24.61],[83.5,24.53],[83.72,24.5],[83.94,24.55],[84.03,24.63],[84.17,24.55],[84.3,24.56],[84.34,24.39],[84.5,24.29],[84.58,24.41],[84.83,24.53],[84.95,24.37],[85.17,24.42],[85.32,24.52],[85.5,24.55],[85.68,24.62],[85.74,24.82],[85.92,24.74],[86.06,24.78],[86.17,24.58],[86.28,24.59],[86.35,24.45],[86.45,24.37],[86.52,24.54],[86.79,24.62],[87.05,24.61],[87.15,25.02],[87.3,25.11],[87.33,25.22],[87.47,25.24],[87.55,25.33],[87.71,25.26],[87.85,25.29],[87.76,25.38],[87.87,25.5],[88.02,25.57],[88.05,25.7],[87.91,25.78],[87.83,25.87],[87.85,26.01],[87.98,26.14],[88.23,26.28],[88.28,26.38],[88.24,26.46],[88.11,26.55]]]},"properties":{"STNAME":"BIHAR"}},
{"type":"Feature","geometry":{"type":"MultiPolygon","coordinates":[[[[72.36,22.03],[72.29,21.97],[72.32,21.82],[72.44,21.93],[72.36,22.03]]],[[[74.32,23.06],[74.27,23.16],[74.13,23.18],[74.14,23.27],[74.03,23.33],[73.89,23.33],[73.77,23.45],[73.63,23.45],[73.66,23.62],[73.47,23.71],[73.35,23.85],[73.41,23.94],[73.36,24.08],[73.21,24.08],[73.07,24.19],[73.17,24.3],[73,24.47],[72.91,24.34],[72.72,24.37],[72.66,24.46],[72.54,24.52],[72.46,24.41],[72.35,24.56],[72.23,24.64],[72.16,24.62],[72.06,24.71],[71.71,24.66],[71.48,24.68],[71.3,24.62],[71.11,24.68],[70.99,24.6],[70.99,24.37],[70.81,24.22],[70.57,24.25],[70.57,24.42],[70.11,24.29],[70.03,24.17],[69.73,24.17],[69.59,24.29],[69.31,24.28],[69.19,24.24],[69.09,24.27],[69,24.22],[68.86,24.21],[68.77,24.26],[68.75,23.97],[68.34,23.97],[68.21,23.88],[68.2,23.77],[68.12,23.62],[68.31,23.58],[68.33,23.5],[68.66,23.15],[69.2,22.84],[69.48,22.8],[69.65,22.8],[70.07,22.92],[70.25,23.16],[70.37,23.22],[70.51,23.18],[70.72,23.19],[70.69,23.12],[70.54,22.97],[70.38,22.91],[70.22,22.66],[70.13,22.55],[69.97,22.54],[69.62,22.35],[69.36,22.32],[69.15,22.24],[69.16,22.4],[69.01,22.44],[68.94,22.31],[69.05,22.13],[69.28,21.9],[69.71,21.53],[70,21.2],[70.26,20.97],[70.45,20.85],[70.74,20.72],[70.92,20.74],[71.01,20.74],[71.44,20.87],[71.51,20.94],[71.8,21.04],[72.11,21.2],[72.11,21.3],[72.21,21.42],[72.31,21.64],[72.18,21.8],[72.37,22.32],[72.69,22.27],[72.56,22.17],[72.51,21.93],[72.62,21.83],[72.55,21.66],[72.71,21.53],[72.6,21.32],[72.83,20.81],[72.9,20.58],[72.86,20.47],[72.82,20.37],[72.74,20.24],[72.74,20.13],[72.87,20.23],[72.9,20.23],[72.96,20.21],[72.97,20.22],[72.95,20.24],[72.91,20.27],[72.94,20.29],[73.13,20.27],[73.21,20.12],[73.3,20.21],[73.42,20.2],[73.4,20.39],[73.47,20.5],[73.44,20.68],[73.6,20.64],[73.65,20.56],[73.84,20.62],[73.94,20.82],[73.9,20.98],[73.7,21.12],[73.61,21.14],[73.62,21.14],[73.58,21.16],[73.58,21.17],[73.61,21.18],[73.61,21.17],[73.61,21.16],[73.63,21.15],[73.63,21.14],[73.66,21.15],[73.68,21.15],[73.7,21.15],[73.82,21.17],[73.83,21.27],[73.94,21.3],[73.94,21.4],[74.16,21.47],[74.08,21.55],[74.05,21.56],[74.05,21.55],[74.05,21.54],[74.05,21.55],[74.04,21.55],[74.04,21.54],[74.04,21.55],[74.03,21.55],[74.01,21.55],[74,21.54],[73.99,21.54],[73.97,21.54],[73.98,21.52],[73.95,21.54],[73.96,21.54],[73.95,21.53],[73.96,21.53],[73.95,21.52],[73.96,21.52],[73.95,21.52],[73.95,21.51],[73.94,21.51],[73.93,21.51],[73.93,21.52],[73.92,21.52],[73.9,21.52],[73.91,21.52],[73.9,21.52],[73.91,21.52],[73.87,21.51],[73.86,21.51],[73.87,21.51],[73.86,21.5],[73.85,21.5],[73.85,21.51],[73.81,21.6],[73.89,21.65],[73.82,21.76],[73.87,21.84],[74.15,21.95],[74.1,22],[74.12,22.19],[74.07,22.36],[74.19,22.32],[74.24,22.43],[74.13,22.52],[74.28,22.65],[74.38,22.63],[74.46,22.82],[74.38,22.91],[74.32,23.06]]]]},"properties":{"STNAME":"GUJARAT"}},
{"type":"Feature","geometry":{"type":"Polygon","coordinates":[[[76.43,11.67],[76.19,11.87],[76.11,11.98],[76,11.93],[75.87,11.95],[75.8,12.08],[75.65,12.11],[75.38,12.39],[75.38,12.5],[75.28,12.52],[75.16,12.67],[75.05,12.67],[75.01,12.77],[74.87,12.76],[75.04,12.39],[75.2,12.01],[75.25,12.01],[75.53,11.7],[75.54,11.69],[75.62,11.49],[75.68,11.45],[75.83,11.11],[75.92,10.78],[76.1,10.38],[76.26,9.88],[76.34,9.41],[76.52,9.02],[76.54,8.91],[77,8.37],[77.1,8.29],[77.17,8.33],[77.27,8.59],[77.18,8.72],[77.26,8.84],[77.15,9.02],[77.27,9.15],[77.28,9.3],[77.37,9.46],[77.37,9.55],[77.17,9.61],[77.23,9.77],[77.21,9.88],[77.27,9.96],[77.29,10.23],[77.18,10.36],[76.98,10.22],[76.83,10.3],[76.84,10.6],[76.9,10.76],[76.83,10.87],[76.66,10.93],[76.75,11.14],[76.63,11.19],[76.53,11.19],[76.55,11.36],[76.25,11.5],[76.26,11.59],[76.38,11.6],[76.43,11.67]]]},"properties":{"STNAME":"KERALA"}},
{"type":"Feature","geometry":null,"properties":{"STNAME":"LAKSHADWEEP"}},
{"type":"Feature","geometry":{"type":"Polygon","coordinates":[[[82.81,23.96],[82.73,24.14],[82.77,24.33],[82.71,24.38],[82.77,24.64],[82.67,24.7],[82.42,24.59],[82.3,24.63],[82.22,24.79],[82.17,24.79],[81.9,24.89],[81.89,25],[81.65,25.07],[81.59,25.17],[81.46,25.09],[81.33,25.17],[81.17,24.96],[80.86,24.93],[80.88,25.07],[80.83,25.12],[80.61,25.1],[80.53,25],[80.37,25.04],[80.43,25.18],[80.31,25.29],[80.29,25.42],[80,25.27],[79.85,25.23],[79.85,25.09],[79.56,25.17],[79.48,25.08],[79.17,25.11],[79.07,25.17],[78.95,25.33],[78.94,25.52],[78.84,25.51],[78.6,25.41],[78.53,25.3],[78.65,25.05],[78.64,24.96],[78.77,24.86],[78.78,24.71],[78.88,24.64],[78.99,24.44],[78.89,24.23],[78.79,24.18],[78.5,24.39],[78.39,24.26],[78.34,24.4],[78.27,24.45],[78.28,24.66],[78.17,24.88],[78.33,24.99],[78.41,25.13],[78.31,25.38],[78.43,25.47],[78.49,25.58],[78.66,25.56],[78.81,25.62],[78.76,25.72],[78.83,25.8],[78.99,26.15],[79.12,26.32],[79.13,26.41],[78.99,26.6],[79.01,26.66],[78.72,26.8],[78.58,26.75],[78.4,26.82],[78.22,26.83],[78.11,26.79],[77.83,26.56],[77.52,26.41],[77.44,26.4],[77.2,26.23],[77.12,26.22],[76.9,26.09],[76.79,25.94],[76.63,25.9],[76.53,25.81],[76.52,25.53],[76.62,25.38],[76.78,25.32],[76.96,25.28],[77.08,25.34],[77.21,25.31],[77.31,25.43],[77.41,25.22],[77.39,25.12],[77.3,25.09],[76.88,25.04],[76.86,24.96],[76.95,24.87],[76.95,24.76],[77.07,24.64],[77.05,24.53],[76.98,24.46],[76.86,24.55],[76.83,24.36],[76.92,24.21],[76.9,24.13],[76.79,24.12],[76.68,24.19],[76.64,24.27],[76.5,24.2],[76.32,24.25],[76.12,24.19],[76.13,24.09],[76,24.02],[75.98,23.93],[75.58,23.79],[75.46,23.91],[75.52,24.02],[75.7,23.97],[75.84,24.06],[75.75,24.14],[75.83,24.23],[75.73,24.4],[75.91,24.46],[75.84,24.73],[75.76,24.76],[75.65,24.69],[75.46,24.68],[75.23,24.72],[75.22,24.8],[75.33,25.04],[75.2,25.03],[75.03,24.84],[74.83,24.9],[74.86,24.8],[74.97,24.76],[74.93,24.64],[74.79,24.59],[74.73,24.49],[74.86,24.42],[74.78,24.34],[74.87,24.24],[74.94,24.05],[74.9,23.85],[74.94,23.63],[74.85,23.55],[74.57,23.42],[74.51,23.32],[74.71,23.25],[74.53,23.1],[74.39,23.11],[74.32,23.06],[74.38,22.91],[74.46,22.82],[74.38,22.63],[74.28,22.65],[74.13,22.52],[74.24,22.43],[74.19,22.32],[74.07,22.36],[74.12,22.19],[74.1,22],[74.15,21.95],[74.28,21.93],[74.38,22.02],[74.51,21.92],[74.51,21.72],[74.58,21.66],[74.82,21.61],[74.87,21.63],[75.05,21.57],[75.11,21.46],[75.32,21.39],[75.96,21.39],[76.1,21.37],[76.16,21.26],[76.17,21.09],[76.38,21.07],[76.49,21.19],[76.62,21.18],[76.62,21.33],[76.79,21.47],[76.8,21.59],[76.9,21.6],[77.13,21.72],[77.28,21.76],[77.5,21.75],[77.57,21.62],[77.45,21.55],[77.49,21.37],[77.82,21.41],[77.88,21.38],[78.08,21.44],[78.27,21.59],[78.42,21.58],[78.44,21.5],[78.59,21.49],[78.9,21.5],[78.91,21.59],[79.09,21.6],[79.22,21.69],[79.5,21.67],[79.58,21.54],[79.74,21.6],[79.86,21.53],[80,21.53],[80.19,21.64],[80.27,21.62],[80.42,21.44],[80.62,21.32],[80.66,21.33],[80.73,21.46],[80.72,21.59],[80.74,21.74],[80.84,21.8],[80.85,21.93],[80.91,22.11],[81.02,22.13],[81.12,22.29],[81.11,22.44],[81.23,22.45],[81.33,22.53],[81.43,22.48],[81.6,22.54],[81.79,22.77],[81.99,23.09],[82.13,23.1],[82.2,23.31],[82.1,23.4],[81.99,23.41],[81.92,23.53],[81.73,23.56],[81.61,23.51],[81.66,23.92],[81.77,23.82],[82.01,23.86],[82.52,23.78],[82.7,23.92],[82.81,23.96]]]},"properties":{"STNAME":"MADHYA PRADESH"}},
{"type":"Feature","geometry":{"type":"Polygon","coordinates":[[[84.76,19.08],[84.82,19.16],[85.1,19.41],[85.37,19.6],[85.68,19.75],[86.23,19.9],[86.37,19.96],[86.52,20.17],[86.78,20.33],[86.73,20.44],[86.78,20.52],[87.06,20.72],[86.85,21.1],[86.86,21.22],[86.94,21.35],[87.15,21.51],[87.36,21.54],[87.49,21.61],[87.44,21.77],[87.26,21.82],[87.24,21.96],[87.1,21.87],[87,21.91],[87.03,22.04],[86.96,22.09],[86.72,22.15],[86.73,22.22],[86.5,22.34],[86.41,22.32],[86.27,22.44],[86.12,22.49],[86.05,22.57],[85.97,22.25],[86.03,22.19],[85.91,21.97],[85.78,21.98],[85.75,22.07],[85.6,22.08],[85.37,22.16],[85.25,22.03],[85.03,22.12],[85.12,22.29],[85.06,22.49],[84.92,22.43],[84.76,22.45],[84.51,22.42],[84.43,22.35],[84.2,22.38],[84.14,22.47],[84.01,22.53],[84,22.37],[83.86,22.34],[83.76,22.24],[83.63,22.2],[83.54,22.04],[83.61,21.91],[83.44,21.66],[83.38,21.62],[83.2,21.15],[83.13,21.11],[82.9,21.17],[82.64,21.15],[82.63,21.04],[82.56,20.95],[82.34,20.85],[82.38,20.63],[82.33,20.57],[82.44,20.43],[82.4,20.06],[82.6,19.99],[82.72,19.99],[82.71,19.84],[82.45,19.91],[82.35,19.84],[82.27,19.98],[82.18,19.98],[81.95,20.11],[81.87,20.04],[81.85,19.92],[82.07,19.79],[82.05,19.53],[82.17,19.44],[82.17,19.15],[82.22,19.1],[82.25,18.92],[82.16,18.79],[81.96,18.69],[81.95,18.57],[81.77,18.42],[81.54,18.27],[81.48,17.98],[81.4,17.82],[81.62,17.82],[81.67,17.89],[81.96,18],[82.01,18.06],[82.34,18.06],[82.34,18.28],[82.38,18.43],[82.48,18.54],[82.61,18.38],[82.6,18.27],[82.77,18.34],[82.81,18.45],[82.97,18.36],[83.04,18.55],[83,18.61],[83.14,18.79],[83.22,18.75],[83.4,18.84],[83.44,18.98],[83.58,19.06],[83.81,18.99],[83.85,18.86],[84.09,18.76],[84.32,18.79],[84.48,19.02],[84.58,19.03],[84.7,19.12],[84.76,19.08]]]},"properties":{"STNAME":"ODISHA"}},
{"type":"Feature","geometry":{"type":"Polygon","coordinates":[[[79.87,12.04],[80.05,12.31],[80.14,12.41],[80.25,12.78],[80.26,12.94],[80.35,13.31],[80.27,13.56],[80.23,13.49],[80.01,13.48],[79.94,13.36],[79.73,13.28],[79.53,13.28],[79.43,13.2],[79.19,13.08],[79.16,13.02],[78.99,13.09],[78.81,13.09],[78.63,12.93],[78.59,12.78],[78.47,12.63],[78.37,12.63],[78.23,12.76],[78.08,12.84],[78.01,12.81],[77.92,12.88],[77.8,12.85],[77.74,12.67],[77.6,12.67],[77.59,12.51],[77.62,12.37],[77.47,12.21],[77.73,12.18],[77.77,12.12],[77.68,11.95],[77.46,11.89],[77.45,11.8],[77.29,11.81],[77.11,11.77],[77.01,11.81],[76.91,11.8],[76.83,11.66],[76.76,11.62],[76.56,11.62],[76.43,11.67],[76.38,11.6],[76.26,11.59],[76.25,11.5],[76.55,11.36],[76.53,11.19],[76.63,11.19],[76.75,11.14],[76.66,10.93],[76.83,10.87],[76.9,10.76],[76.84,10.6],[76.83,10.3],[76.98,10.22],[77.18,10.36],[77.29,10.23],[77.27,9.96],[77.21,9.88],[77.23,9.77],[77.17,9.61],[77.37,9.55],[77.37,9.46],[77.28,9.3],[77.27,9.15],[77.15,9.02],[77.26,8.84],[77.18,8.72],[77.27,8.59],[77.17,8.33],[77.1,8.29],[77.33,8.13],[77.56,8.08],[77.58,8.14],[77.79,8.16],[78.14,8.5],[78.14,8.68],[78.17,8.88],[78.22,8.97],[78.41,9.11],[78.66,9.16],[78.73,9.21],[79.07,9.3],[78.9,9.46],[78.93,9.59],[79.16,9.93],[79.26,10.05],[79.27,10.23],[79.39,10.32],[79.77,10.27],[79.87,10.38],[79.84,10.83],[79.72,10.93],[79.85,10.98],[79.86,11.17],[79.81,11.44],[79.76,11.56],[79.8,11.79],[79.81,11.83],[79.81,11.84],[79.84,11.96],[79.86,12.01],[79.87,12.04]]]},"properties":{"STNAME":"TAMIL NADU"}},
{"type":"Feature","geometry":{"type":"Polygon","coordinates":[[[80.07,28.84],[79.95,28.72],[79.83,28.88],[79.72,28.85],[79.42,28.87],[79.41,28.95],[79.21,29.03],[79.15,29.12],[79.04,29.16],[78.92,29.14],[78.87,29.23],[78.73,29.3],[78.92,29.43],[78.71,29.5],[78.58,29.59],[78.51,29.72],[78.34,29.8],[78.2,29.74],[78.02,29.59],[77.91,29.7],[77.83,29.67],[77.71,29.87],[77.8,30.08],[77.94,30.25],[77.58,30.4],[77.59,30.38],[77.58,30.31],[77.41,30.09],[77.3,30.06],[77.12,29.75],[77.1,29.52],[77.16,29.33],[77.13,29.22],[77.23,28.92],[77.21,28.86],[77.2,28.8],[77.33,28.71],[77.3,28.58],[77.35,28.51],[77.48,28.42],[77.54,28.17],[77.47,28.09],[77.55,27.96],[77.28,27.8],[77.35,27.65],[77.34,27.53],[77.44,27.39],[77.55,27.34],[77.66,27.17],[77.54,27.1],[77.66,26.97],[77.4,26.83],[77.49,26.75],[77.56,26.82],[77.72,26.87],[77.76,26.93],[77.95,26.89],[78.12,26.95],[78.27,26.92],[78.22,26.83],[78.4,26.82],[78.58,26.75],[78.72,26.8],[79.01,26.66],[78.99,26.6],[79.13,26.41],[79.12,26.32],[78.99,26.15],[78.83,25.8],[78.76,25.72],[78.81,25.62],[78.66,25.56],[78.49,25.58],[78.43,25.47],[78.31,25.38],[78.41,25.13],[78.33,24.99],[78.17,24.88],[78.28,24.66],[78.27,24.45],[78.34,24.4],[78.39,24.26],[78.5,24.39],[78.79,24.18],[78.89,24.23],[78.99,24.44],[78.88,24.64],[78.78,24.71],[78.77,24.86],[78.64,24.96],[78.65,25.05],[78.53,25.3],[78.6,25.41],[78.84,25.51],[78.94,25.52],[78.95,25.33],[79.07,25.17],[79.17,25.11],[79.48,25.08],[79.56,25.17],[79.85,25.09],[79.85,25.23],[80,25.27],[80.29,25.42],[80.31,25.29],[80.43,25.18],[80.37,25.04],[80.53,25],[80.61,25.1],[80.83,25.12],[80.88,25.07],[80.86,24.93],[81.17,24.96],[81.33,25.17],[81.46,25.09],[81.59,25.17],[81.65,25.07],[81.89,25],[81.9,24.89],[82.17,24.79],[82.22,24.79],[82.3,24.63],[82.42,24.59],[82.67,24.7],[82.77,24.64],[82.71,24.38],[82.77,24.33],[82.73,24.14],[82.81,23.96],[82.95,23.87],[83.14,23.88],[83.33,24.1],[83.45,24.38],[83.4,24.5],[83.5,24.53],[83.54,24.61],[83.49,24.74],[83.4,24.78],[83.35,24.91],[83.37,25.2],[83.41,25.25],[83.81,25.41],[83.92,25.55],[84.17,25.72],[84.32,25.67],[84.36,25.74],[84.52,25.68],[84.62,25.79],[84.51,25.87],[84.21,26],[84.03,26.2],[84.18,26.27],[84.18,26.37],[83.91,26.45],[83.92,26.52],[84.06,26.54],[84.09,26.64],[84.28,26.6],[84.33,26.68],[84.18,26.83],[84.05,26.91],[84.05,27.04],[83.95,27.11],[83.99,27.2],[83.86,27.34],[83.61,27.47],[83.39,27.48],[83.36,27.34],[83.19,27.45],[83.03,27.45],[82.93,27.5],[82.74,27.5],[82.75,27.59],[82.7,27.72],[82.45,27.68],[82.07,27.92],[81.97,27.93],[81.9,27.85],[81.7,27.99],[81.48,28.08],[81.32,28.2],[81.21,28.36],[81.02,28.42],[80.91,28.5],[80.54,28.69],[80.38,28.63],[80.12,28.83],[80.07,28.84]]]},"properties":{"STNAME":"UTTAR PRADESH"}},
{"type":"Feature","geometry":{"type":"Polygon","coordinates":[[[88.75,27.14],[88.6,27.19],[88.43,27.08],[88.32,27.13],[88.15,27.11],[88.01,27.21],[87.99,27.11],[88.12,26.95],[88.19,26.77],[88.11,26.55],[88.24,26.46],[88.28,26.38],[88.23,26.28],[87.98,26.14],[87.85,26.01],[87.83,25.87],[87.91,25.78],[88.05,25.7],[88.02,25.57],[87.87,25.5],[87.76,25.38],[87.85,25.29],[87.71,25.26],[87.78,25.25],[87.8,25.09],[87.96,24.97],[87.84,24.74],[87.92,24.67],[87.82,24.5],[87.76,24.31],[87.53,24.11],[87.44,23.98],[87.25,24.05],[87.3,23.9],[87.12,23.8],[86.99,23.86],[86.89,23.84],[86.8,23.69],[86.71,23.7],[86.49,23.64],[86.29,23.43],[86.04,23.5],[85.88,23.48],[85.87,23.33],[85.82,23.27],[85.89,23.16],[86.04,23.14],[86.22,22.99],[86.5,22.99],[86.42,22.79],[86.77,22.58],[86.85,22.4],[86.82,22.27],[86.73,22.22],[86.72,22.15],[86.96,22.09],[87.03,22.04],[87,21.91],[87.1,21.87],[87.24,21.96],[87.26,21.82],[87.44,21.77],[87.49,21.61],[87.81,21.71],[87.99,21.87],[88.06,22.02],[88.15,21.96],[88.21,21.78],[88.43,21.91],[88.54,21.86],[88.63,21.95],[88.85,21.92],[89.06,21.94],[89.07,22.21],[89,22.29],[89,22.43],[88.94,22.59],[88.96,22.82],[88.86,22.97],[88.94,23.21],[88.72,23.25],[88.78,23.44],[88.59,23.62],[88.57,23.78],[88.73,23.91],[88.71,24.12],[88.74,24.25],[88.68,24.32],[88.56,24.31],[88.33,24.44],[88.12,24.52],[88.02,24.69],[88.23,24.96],[88.33,24.87],[88.45,25.04],[88.44,25.17],[88.71,25.21],[88.92,25.17],[88.92,25.31],[88.82,25.4],[88.79,25.52],[88.66,25.47],[88.55,25.52],[88.27,25.78],[88.1,25.83],[88.09,25.93],[88.19,26.06],[88.18,26.15],[88.35,26.22],[88.35,26.28],[88.56,26.46],[88.82,26.29],[88.93,26.28],[88.93,26.43],[89.09,26.37],[89.16,26.14],[89.36,26.01],[89.52,26.01],[89.72,26.17],[89.78,26.35],[89.87,26.45],[89.85,26.7],[89.76,26.7],[89.62,26.78],[89.37,26.86],[89.13,26.81],[89.09,26.89],[88.95,26.97],[88.87,27.11],[88.75,27.14]]]},"properties":{"STNAME":"WEST BENGAL"}},
{"type":"Feature","geometry":{"type":"Polygon","coordinates":[[[84.76,19.08],[84.7,19.12],[84.58,19.03],[84.48,19.02],[84.32,18.79],[84.09,18.76],[83.85,18.86],[83.81,18.99],[83.58,19.06],[83.44,18.98],[83.4,18.84],[83.22,18.75],[83.14,18.79],[83,18.61],[83.04,18.55],[82.97,18.36],[82.81,18.45],[82.77,18.34],[82.6,18.27],[82.61,18.38],[82.48,18.54],[82.38,18.43],[82.34,18.28],[82.34,18.06],[82.01,18.06],[81.96,18],[81.67,17.89],[81.62,17.82],[81.4,17.82],[81.27,17.81],[81.17,17.86],[81.09,17.8],[81.04,17.75],[80.89,17.74],[80.86,17.6],[80.97,17.6],[81.02,17.52],[81.31,17.41],[81.17,17.23],[80.99,17.19],[80.92,17.22],[80.83,17.05],[80.58,17.15],[80.46,17.03],[80.6,16.92],[80.57,16.77],[80.32,16.88],[80.31,16.97],[80.17,17.02],[80.06,16.97],[80,16.87],[80.05,16.74],[79.96,16.64],[79.79,16.73],[79.6,16.67],[79.42,16.58],[79.26,16.57],[79.22,16.51],[79.22,16.23],[79.01,16.24],[78.83,16.14],[78.84,16.08],[78.74,16.01],[78.63,16.09],[78.55,16.04],[78.41,16.07],[78.3,16.01],[78.18,15.86],[78.1,15.84],[77.89,15.91],[77.8,15.87],[77.51,15.93],[77.19,15.96],[77.07,15.91],[77.03,15.63],[77.04,15.36],[77.15,15.28],[77.17,15.17],[77.11,15.03],[76.88,15.03],[76.87,14.94],[76.77,14.6],[76.95,14.41],[76.94,14.24],[77.12,14.23],[77.14,14.34],[77.36,14.28],[77.48,14.29],[77.5,14.16],[77.39,14.17],[77.4,13.91],[77.31,14.03],[77.14,14],[76.97,14.08],[76.93,14.03],[77.04,13.93],[76.98,13.82],[77.06,13.74],[77.26,13.85],[77.43,13.84],[77.47,13.71],[77.78,13.82],[77.9,13.94],[77.99,13.87],[78.11,13.86],[78.11,13.66],[78.19,13.59],[78.39,13.59],[78.4,13.32],[78.56,13.28],[78.57,13.19],[78.39,12.91],[78.25,12.86],[78.23,12.76],[78.37,12.63],[78.47,12.63],[78.59,12.78],[78.63,12.93],[78.81,13.09],[78.99,13.09],[79.16,13.02],[79.19,13.08],[79.43,13.2],[79.53,13.28],[79.73,13.28],[79.94,13.36],[80.01,13.48],[80.23,13.49],[80.27,13.56],[80.25,13.79],[80.15,14.03],[80.13,14.15],[80.2,14.59],[80.11,14.74],[80.05,15.08],[80.08,15.27],[80.21,15.47],[80.29,15.69],[80.43,15.81],[80.69,15.88],[80.77,15.87],[80.84,15.71],[81.01,15.75],[81.01,15.85],[81.15,15.97],[81.21,16.21],[81.27,16.28],[81.49,16.36],[81.72,16.31],[81.96,16.4],[82.3,16.56],[82.35,16.85],[82.25,16.9],[82.32,17.06],[82.46,17.19],[82.73,17.36],[83.16,17.56],[83.35,17.73],[83.42,17.85],[83.57,18.01],[83.75,18.13],[84.07,18.28],[84.15,18.37],[84.35,18.55],[84.6,18.89],[84.76,19.08]]]},"properties":{"STNAME":"ANDHRA PRADESH"}},
{"type":"Feature","geometry":{"type":"Polygon","coordinates":[[[79.85,10.98],[79.72,10.93],[79.84,10.83],[79.85,10.98]]]},"properties":{"STNAME":"PUDUCHERRY"}},
{"type":"Feature","geometry":{"type":"Polygon","coordinates":[[[80.66,21.33],[80.62,21.32],[80.42,21.44],[80.27,21.62],[80.19,21.64],[80,21.53],[79.86,21.53],[79.74,21.6],[79.58,21.54],[79.5,21.67],[79.22,21.69],[79.09,21.6],[78.91,21.59],[78.9,21.5],[78.59,21.49],[78.44,21.5],[78.42,21.58],[78.27,21.59],[78.08,21.44],[77.88,21.38],[77.82,21.41],[77.49,21.37],[77.45,21.55],[77.57,21.62],[77.5,21.75],[77.28,21.76],[77.13,21.72],[76.9,21.6],[76.8,21.59],[76.79,21.47],[76.62,21.33],[76.62,21.18],[76.49,21.19],[76.38,21.07],[76.17,21.09],[76.16,21.26],[76.1,21.37],[75.96,21.39],[75.32,21.39],[75.11,21.46],[75.05,21.57],[74.87,21.63],[74.82,21.61],[74.58,21.66],[74.51,21.72],[74.51,21.92],[74.38,22.02],[74.28,21.93],[74.15,21.95],[73.87,21.84],[73.82,21.76],[73.89,21.65],[73.81,21.6],[73.85,21.51],[73.85,21.5],[73.86,21.5],[73.87,21.51],[73.86,21.51],[73.87,21.51],[73.91,21.52],[73.9,21.52],[73.91,21.52],[73.9,21.52],[73.92,21.52],[73.93,21.52],[73.93,21.51],[73.94,21.51],[73.95,21.51],[73.95,21.52],[73.96,21.52],[73.95,21.52],[73.96,21.53],[73.95,21.53],[73.96,21.54],[73.95,21.54],[73.98,21.52],[73.97,21.54],[73.99,21.54],[74,21.54],[74.01,21.55],[74.03,21.55],[74.04,21.55],[74.04,21.54],[74.04,21.55],[74.05,21.55],[74.05,21.54],[74.05,21.55],[74.05,21.56],[74.08,21.55],[74.16,21.47],[73.94,21.4],[73.94,21.3],[73.83,21.27],[73.82,21.17],[73.7,21.15],[73.68,21.15],[73.66,21.15],[73.63,21.14],[73.63,21.15],[73.61,21.16],[73.61,21.17],[73.61,21.18],[73.58,21.17],[73.58,21.16],[73.62,21.14],[73.61,21.14],[73.7,21.12],[73.9,20.98],[73.94,20.82],[73.84,20.62],[73.65,20.56],[73.6,20.64],[73.44,20.68],[73.47,20.5],[73.4,20.39],[73.42,20.2],[73.3,20.21],[73.21,20.12],[73.18,20.05],[72.97,20.16],[72.96,20.18],[72.96,20.21],[72.9,20.23],[72.87,20.23],[72.74,20.13],[72.65,19.84],[72.75,19.65],[72.72,19.59],[72.78,19.23],[72.83,19.09],[72.8,18.9],[72.87,18.8],[72.86,18.7],[72.92,18.55],[72.91,18.37],[72.95,18.22],[73.09,17.84],[73.14,17.56],[73.19,17.46],[73.29,17.08],[73.28,16.89],[73.35,16.61],[73.31,16.54],[73.44,16.2],[73.51,15.94],[73.59,15.91],[73.68,15.73],[73.94,15.74],[73.99,15.61],[74.12,15.65],[74.16,15.75],[74.37,15.79],[74.39,15.91],[74.48,16.09],[74.5,16.23],[74.35,16.28],[74.33,16.45],[74.4,16.58],[74.54,16.64],[74.69,16.62],[74.77,16.75],[74.92,16.77],[74.99,16.95],[75.09,16.95],[75.18,16.84],[75.28,16.96],[75.47,16.99],[75.67,16.98],[75.67,17.12],[75.6,17.31],[75.63,17.48],[75.93,17.32],[76.12,17.37],[76.36,17.38],[76.33,17.6],[76.42,17.6],[76.56,17.76],[76.69,17.68],[76.78,17.88],[76.92,17.92],[76.92,18.12],[76.95,18.19],[77.14,18.21],[77.24,18.41],[77.34,18.45],[77.41,18.39],[77.41,18.3],[77.55,18.29],[77.53,18.34],[77.6,18.55],[77.74,18.56],[77.84,18.8],[77.8,19.05],[77.87,19.26],[77.95,19.34],[78.06,19.24],[78.18,19.24],[78.17,19.36],[78.3,19.46],[78.28,19.69],[78.42,19.82],[78.55,19.82],[78.84,19.76],[78.96,19.66],[78.94,19.55],[79.2,19.49],[79.27,19.6],[79.5,19.51],[79.74,19.61],[79.94,19.47],[79.97,19.42],[79.94,19.04],[79.96,18.87],[80.12,18.68],[80.27,18.72],[80.35,18.85],[80.27,18.94],[80.48,19.34],[80.76,19.29],[80.85,19.36],[80.9,19.52],[80.71,19.62],[80.68,19.7],[80.55,19.82],[80.55,20.12],[80.39,20.17],[80.4,20.24],[80.63,20.34],[80.61,20.6],[80.55,20.8],[80.54,20.92],[80.46,20.93],[80.46,21.17],[80.64,21.25],[80.66,21.33]]]},"properties":{"STNAME":"MAHARASHTRA"}},
{"type":"Feature","geometry":null,"properties":{"STNAME":"DAMAN & DIU"}},
{"type":"Feature","geometry":{"type":"Polygon","coordinates":[[[73.21,20.12],[73.13,20.27],[72.94,20.29],[72.91,20.27],[72.95,20.24],[72.97,20.22],[72.96,20.21],[72.96,20.18],[72.97,20.16],[73.18,20.05],[73.21,20.12]]]},"properties":{"STNAME":"DADRA & NAGAR HAVELI"}},
{"type":"Feature","geometry":{"type":"Polygon","coordinates":[[[78.4,32.53],[78.66,32.65],[78.76,32.65],[78.83,32.44],[78.96,32.37],[79.11,32.38],[79.32,32.59],[79.45,32.53],[79.63,32.74],[79.34,33.02],[79.45,33.26],[79.1,33.29],[78.99,33.33],[78.93,33.43],[78.92,33.63],[79.09,33.69],[78.9,33.97],[79.02,34.05],[79.15,34.07],[79.4,34.03],[79.59,34.28],[79.51,34.47],[79.79,34.48],[79.77,34.62],[79.86,34.69],[80.07,34.71],[80.07,34.83],[80.17,35],[80.18,35.17],[80.33,35.47],[80.29,35.61],[80.11,35.68],[80,35.84],[79.87,35.78],[79.42,35.9],[79.38,35.99],[79.24,35.99],[79.13,35.84],[78.96,35.89],[78.66,35.86],[78.52,35.76],[78.27,35.72],[78.14,35.54],[78.04,35.59],[77.92,35.49],[77.51,35.49],[77.36,35.72],[77.23,35.71],[77.11,35.8],[76.93,35.78],[76.81,35.84],[76.72,35.95],[76.8,36.05],[76.48,36.21],[76.35,36.36],[76.25,36.35],[76.08,36.47],[75.92,36.5],[75.75,36.59],[75.62,36.76],[75.47,36.81],[75.43,36.95],[75.26,37.05],[75.09,36.94],[74.91,36.91],[74.84,37.02],[74.71,37.07],[74.43,36.99],[74.26,36.89],[74.05,36.81],[73.94,36.87],[73.7,36.68],[73.44,36.74],[73.2,36.71],[72.99,36.46],[72.78,36.31],[72.6,36.26],[72.53,36.07],[72.6,36.03],[72.54,35.91],[72.69,35.83],[72.9,35.88],[73.15,35.84],[73.14,35.72],[73.41,35.56],[73.63,35.57],[73.78,35.53],[73.79,35.46],[73.7,35.32],[73.78,35.24],[74.08,35.15],[74.13,35.11],[74.25,35.04],[74.47,35.12],[74.59,35.01],[74.55,34.77],[74.73,34.67],[75.02,34.63],[75.18,34.65],[75.34,34.55],[75.32,34.43],[75.41,34.28],[75.69,34.16],[75.85,33.98],[76.02,34],[76.05,33.93],[76.27,33.73],[76.3,33.57],[76.5,33.52],[76.77,33.25],[76.93,33.03],[77.15,32.98],[77.16,32.92],[77.34,32.82],[77.6,32.94],[77.73,32.97],[77.79,32.86],[77.93,32.77],[77.92,32.69],[78.02,32.62],[78.22,32.66],[78.39,32.76],[78.4,32.53]]]},"properties":{"STNAME":"LADAKH"}},
{"type":"Feature","geometry":{"type":"Polygon","coordinates":[[[76.77,33.25],[76.5,33.52],[76.3,33.57],[76.27,33.73],[76.05,33.93],[76.02,34],[75.85,33.98],[75.69,34.16],[75.41,34.28],[75.32,34.43],[75.34,34.55],[75.18,34.65],[75.02,34.63],[74.73,34.67],[74.55,34.77],[74.59,35.01],[74.47,35.12],[74.25,35.04],[74.13,35.11],[74.07,35.05],[74.07,34.94],[73.96,34.84],[73.77,34.8],[73.62,34.59],[73.44,34.56],[73.41,34.39],[73.49,34.19],[73.52,34],[73.59,33.88],[73.56,33.68],[73.62,33.57],[73.56,33.39],[73.62,33.11],[73.83,33.01],[73.96,32.99],[74.38,32.76],[74.46,32.79],[74.65,32.73],[74.68,32.49],[74.82,32.5],[74.95,32.45],[75.03,32.5],[75.33,32.33],[75.48,32.33],[75.69,32.39],[75.83,32.51],[75.92,32.61],[75.95,32.87],[76.25,33.02],[76.41,33.19],[76.57,33.21],[76.75,33.18],[76.77,33.25]]]},"properties":{"STNAME":"JAMMU & KASHMIR"}}
]}